EUTELSAT QUANTUM        
1 49056U 21069B   25260.23547166  .00000000  00000+0  00000+0 0  9999
2 49056   0.0161 140.1331 0002457  69.5142 279.2572  1.00273103 15199
EUTELSAT KONNECT VHTS   
1 53765U 22110A   25259.22739965 -.00000002  00000+0  00000+0 0  9999
2 53765   0.0543 103.0352 0002505  66.6863 270.2575  1.00270778  4072
EUTELSAT HOTBIRD 13F    
1 54048U 22134A   25260.22862495  .00000067  00000+0  00000+0 0  9997
2 54048   0.0651 287.4689 0001866  68.8999  95.3576  1.00271989 10631
EUTELSAT HOTBIRD 13G    
1 54225U 22146A   25259.65765900  .00000068  00000+0  00000+0 0  9996
2 54225   0.0563 238.0931 0002358 308.3874  59.1526  1.00271419  4727
EUTELSAT 10B            
1 54259U 22157A   25259.58572536  .00000048  00000+0  00000+0 0  9996
2 54259   0.0579 101.4709 0001492   4.4572 110.6721  1.00269818 10271
EUTELSAT 36D            
1 59346U 24059A   25260.23313164  .00000000  00000+0  00000+0 0  9993
2 59346   0.0262 158.6839 0000326  99.9533 217.5597  1.00270796  5416
